NORAD_CAT_ID,OBJECT_NAME,OBJECT_TYPE,EPOCH,MEAN_MOTION,ECCENTRICITY,INCLINATION,RA_OF_ASC_NODE,ARG_OF_PERICENTER,MEAN_ANOMALY,BSTAR,MEAN_MOTION_DOT,MEAN_MOTION_DDOT,TLE_LINE0,TLE_LINE1,TLE_LINE2,SEMIMAJOR_AXIS,PERIOD,APOGEE,PERIGEE,DECAYED
52343.0,STARLINK-3849,PAYLOAD,2022-09-20 00:28:12,15.08839273,0.0001746,53.2186,135.41899999999998,44.4423,315.6709,7.6802e-05,9.34e-06,0.0,0 STARLINK-3849,1 52343U 22045N   22263.01958426  .00000934  00000-0  76802-4 0  9993,2 52343  53.2186 135.4190 0001746  44.4423 315.6709 15.08839273 24425,6917.8830000000025,95.438,540.955,538.54,0.0
52343.0,STARLINK-3849,PAYLOAD,2022-09-20 08:25:07,15.08850194,0.0001875,53.2185,133.9319,43.2077,316.9062,-6.3314e-05,-1.296e-05,0.0,0 STARLINK-3849,1 52343U 22045N   22263.35077996 -.00001296  00000-0 -63314-4 0  9992,2 52343  53.2185 133.9319 0001875  43.2077 316.9062 15.08850194 24471,6917.849,95.437,541.011,538.4169999999998,0.0
52343.0,STARLINK-3849,PAYLOAD,2022-09-20 17:57:26,15.08840345,0.0001666999999999,53.2187,132.1476,47.1633,312.9499,4.2068e-05,3.82e-06,0.0,0 STARLINK-3849,1 52343U 22045N   22263.74822394  .00000382  00000-0  42068-4 0  9991,2 52343  53.2187 132.1476 0001667  47.1633 312.9499 15.08840345 24532,6917.879,95.438,540.898,538.591,0.0
52343.0,STARLINK-3849,PAYLOAD,2022-09-21 01:54:22,15.08838552,0.0001618,53.2188,130.6608,50.5666,309.5469,9.0204e-06,-1.44e-06,0.0,0 STARLINK-3849,1 52343U 22045N   22264.07942629 -.00000144  00000-0  90204-5 0  9995,2 52343  53.2188 130.6608 0001618  50.5666 309.5469 15.08838552 24584,6917.885,95.438,540.869,538.631,0.0
52343.0,STARLINK-3849,PAYLOAD,2022-09-21 17:48:14,15.08785849,0.0002044999999999,53.2187,127.6876,51.1658,308.9517,0.00065043,0.00010063,0.0,0 STARLINK-3849,1 52343U 22045N   22264.74183816  .00010063  00000-0  65043-3 0  9995,2 52343  53.2187 127.6876 0002045  51.1658 308.9517 15.08785849 24687,6918.045999999999,95.441,541.326,538.496,0.0
52343.0,STARLINK-3849,PAYLOAD,2022-09-22 01:45:09,15.08842462,0.0001747,53.2187,126.2007,45.8562,314.2574,-0.00017107,-3.01e-05,0.0,0 STARLINK-3849,1 52343U 22045N   22265.07303008 -.00003010  00000-0 -17107-3 0  9993,2 52343  53.2187 126.2007 0001747  45.8562 314.2574 15.08842462 24734,6917.873000000001,95.437,540.946,538.529,0.0
52343.0,STARLINK-3849,PAYLOAD,2022-09-22 19:14:24,15.08836214,0.0001728,53.2194,122.9301,43.8489,316.264,2.4067e-05,9.5e-07,0.0,0 STARLINK-3849,1 52343U 22045N   22265.80167187  .00000095  00000-0  24067-4 0  9992,2 52343  53.2194 122.9301 0001728  43.8489 316.2640 15.08836214 24843,6917.892,95.438,540.952,538.562,0.0
52343.0,STARLINK-3849,PAYLOAD,2022-09-23 01:35:56,15.08837741,0.0001819,53.2184,121.74,46.8591,313.2554,7.5572e-05,9.15e-06,0.0,0 STARLINK-3849,1 52343U 22045N   22266.06663008  .00000915  00000-0  75572-4 0  9992,2 52343  53.2184 121.7400 0001819  46.8591 313.2554 15.08837741 24888,6917.887,95.438,541.011,538.494,0.0
52343.0,STARLINK-3849,PAYLOAD,2022-09-23 20:40:34,15.08840691,0.0002017,53.2188,118.1734,42.3633,317.7514,0.00014546,2.028e-05,0.0,0 STARLINK-3849,1 52343U 22045N   22266.86150709  .00002028  00000-0  14546-3 0  9999,2 52343  53.2188 118.1734 0002017  42.3633 317.7514 15.08840691 25009,6917.878000000002,95.438,541.139,538.3480000000002,0.0
52343.0,STARLINK-3849,PAYLOAD,2022-09-23 23:51:21,15.08834065,0.000208,53.218,117.5768,42.4877,317.6276,9.4622e-05,1.218e-05,0.0,0 STARLINK-3849,1 52343U 22045N   22266.99399316  .00001218  00000-0  94622-4 0  9996,2 52343  53.2180 117.5768 0002080  42.4877 317.6276 15.08834065 25026,6917.899,95.438,541.202,538.325,0.0
52343.0,STARLINK-3849,PAYLOAD,2022-09-24 20:31:21,15.0884645,0.0001986,53.2183,113.7113,45.6978,314.4177,9.1561e-05,1.17e-05,0.0,0 STARLINK-3849,1 52343U 22045N   22267.85510670  .00001170  00000-0  91561-4 0  9996,2 52343  53.2183 113.7113 0001986  45.6978 314.4177 15.08846450 25152,6917.861,95.437,541.1,538.352,0.0
52343.0,STARLINK-3849,PAYLOAD,2022-09-24 23:42:07,15.08849674,0.0001934,53.2185,113.1179,48.0597,312.056,0.00011718,1.578e-05,0.0,0 STARLINK-3849,1 52343U 22045N   22267.98758356  .00001578  00000-0  11718-3 0  9992,2 52343  53.2185 113.1179 0001934  48.0597 312.0560 15.08849674 25170,6917.851,95.437,541.054,538.378,0.0
52343.0,STARLINK-3849,PAYLOAD,2022-09-25 18:46:45,15.08845023,0.0001559,53.2188,109.5475,53.7196,306.394,-3.322e-05,-8.17e-06,0.0,0 STARLINK-3849,1 52343U 22045N   22268.78246690 -.00000817  00000-0 -33220-4 0  9994,2 52343  53.2188 109.5475 0001559  53.7196 306.3940 15.08845023 25297,6917.865,95.437,540.809,538.6519999999998,0.0
52343.0,STARLINK-3849,PAYLOAD,2022-09-26 01:08:18,15.08834668,0.0001686999999999,53.2182,108.3582,47.8088,312.3047,-0.00011836,-2.171e-05,0.0,0 STARLINK-3849,1 52343U 22045N   22269.04743617 -.00002171  00000-0 -11836-3 0  9998,2 52343  53.2182 108.3582 0001687  47.8088 312.3047 15.08834668 25336,6917.897,95.438,540.929,538.595,0.0
52343.0,STARLINK-3849,PAYLOAD,2022-09-26 15:26:46,15.08835588,0.0002020999999999,53.2188,105.685,38.2312,321.8823,-7.1183e-05,-1.421e-05,0.0,0 STARLINK-3849,1 52343U 22045N   22269.64359842 -.00001421  00000-0 -71183-4 0  9996,2 52343  53.2188 105.6850 0002021  38.2312 321.8823 15.08835588 25426,6917.894,95.438,541.1569999999998,538.361,0.0
52343.0,STARLINK-3849,PAYLOAD,2022-09-27 00:59:05,15.08840419,0.0002059,53.2186,103.9006,39.1491,320.965,-2.031e-05,-6.11e-06,0.0,0 STARLINK-3849,1 52343U 22045N   22270.04103451 -.00000611  00000-0 -20310-4 0  9991,2 52343  53.2186 103.9006 0002059  39.1491 320.9650 15.08840419 25480,6917.879,95.438,541.168,538.32,0.0
52343.0,STARLINK-3849,PAYLOAD,2022-09-27 20:03:45,15.08734388,0.0002456,53.2187,100.3305,47.2743,312.8456,0.0015151,0.00023838,0.0,0 STARLINK-3849,1 52343U 22045N   22270.83593892  .00023838  00000-0  15151-2 0  9999,2 52343  53.2187 100.3305 0002456  47.2743 312.8456 15.08734388 25600,6918.203,95.444,541.7669999999998,538.369,0.0
52343.0,STARLINK-3849,PAYLOAD,2022-09-28 16:43:43,15.08839997,0.0002083,53.2188,96.4653,36.6056,323.5078,7.4256e-05,8.94e-06,0.0,0 STARLINK-3849,1 52343U 22045N   22271.69703699  .00000894  00000-0  74256-4 0  9992,2 52343  53.2188  96.4653 0002083  36.6056 323.5078 15.08839997 25732,6917.88,95.438,541.186,538.304,0.0
52343.0,STARLINK-3849,PAYLOAD,2022-09-29 05:26:48,15.08847219,0.000206,53.2184,94.0856,44.8905,315.2253,7.5803e-05,9.19e-06,0.0,0 STARLINK-3849,1 52343U 22045N   22272.22695231  .00000919  00000-0  75803-4 0  9991,2 52343  53.2184  94.0856 0002060  44.8905 315.2253 15.08847219 25814,6917.858,95.437,541.148,538.298,0.0
52343.0,STARLINK-3849,PAYLOAD,2022-09-29 18:09:54,15.0883949,0.0002051,53.2193,91.7083,57.2776,302.8414,5.9679e-05,6.62e-06,0.0,0 STARLINK-3849,1 52343U 22045N   22272.75687755  .00000662  00000-0  59679-4 0  9999,2 52343  53.2193  91.7083 0002051  57.2776 302.8414 15.08839490 25895,6917.882,95.438,541.1659999999998,538.328,0.0
52343.0,STARLINK-3849,PAYLOAD,2022-09-30 11:39:09,15.08838652,0.0002177999999999,53.218,88.4357,46.1732,313.944,9.057e-07,-2.74e-06,0.0,0 STARLINK-3849,1 52343U 22045N   22273.48552200 -.00000274  00000-0  90570-6 0  9993,2 52343  53.2180  88.4357 0002178  46.1732 313.9440 15.08838652 26002,6917.885,95.438,541.256,538.243,0.0
52343.0,STARLINK-3849,PAYLOAD,2022-09-30 18:00:41,15.08839459,0.0002177,53.2178,87.2462,44.7121,315.4046,6.9009e-06,-1.78e-06,0.0,0 STARLINK-3849,1 52343U 22045N   22273.75048158 -.00000178  00000-0  69009-5 0  9990,2 52343  53.2178  87.2462 0002177  44.7121 315.4046 15.08839459 26047,6917.882,95.438,541.253,538.241,0.0
52343.0,STARLINK-3849,PAYLOAD,2022-09-30 21:11:27,15.08838135,0.0002189,53.2186,86.6526,43.5839,316.5326,4.5565e-06,-2.16e-06,0.0,0 STARLINK-3849,1 52343U 22045N   22273.88296277 -.00000216  00000-0  45565-5 0  9995,2 52343  53.2186  86.6526 0002189  43.5839 316.5326 15.08838135 26061,6917.886,95.438,541.265,538.237,0.0
52343.0,STARLINK-3849,PAYLOAD,2022-10-01 17:51:27,15.08843039,0.0002069,53.2193,82.7865,49.7567,310.3605,0.00022432,3.284e-05,0.0,0 STARLINK-3849,1 52343U 22045N   22274.74407381  .00003284  00000-0  22432-3 0  9994,2 52343  53.2193  82.7865 0002069  49.7567 310.3605 15.08843039 26190,6917.871,95.437,541.1669999999998,538.305,0.0
52343.0,STARLINK-3849,PAYLOAD,2022-10-01 19:26:50,15.08851999,0.0001904,53.2191,82.4885,48.2434,311.872,0.00016246,2.299e-05,0.0,0 STARLINK-3849,1 52343U 22045N   22274.81030984  .00002299  00000-0  16246-3 0  9994,2 52343  53.2191  82.4885 0001904  48.2434 311.8720 15.08851999 26201,6917.844,95.437,541.026,538.3919999999998,0.0
52343.0,STARLINK-3849,PAYLOAD,2022-10-01 21:02:13,15.08853291,0.0002034,53.2191,82.1917,46.8662,313.25,0.00019315,2.788e-05,0.0,0 STARLINK-3849,1 52343U 22045N   22274.87654917  .00002788  00000-0  19315-3 0  9991,2 52343  53.2191  82.1917 0002034  46.8662 313.2500 15.08853291 26216,6917.84,95.437,541.112,538.298,0.0
52343.0,STARLINK-3849,PAYLOAD,2022-10-02 11:20:42,15.08841482,0.0002205,53.2196,79.5174,50.3947,309.724,6.437600000000001e-05,7.36e-06,0.0,0 STARLINK-3849,1 52343U 22045N   22275.47271892  .00000736  00000-0  64376-4 0  9994,2 52343  53.2196  79.5174 0002205  50.3947 309.7240 15.08841482 26302,6917.876,95.437,541.266,538.215,0.0
52343.0,STARLINK-3849,PAYLOAD,2022-10-02 17:42:16,15.08831339,0.0002065999999999,53.2191,78.3258,46.9313,313.1852,7.5806e-05,9.18e-06,0.0,0 STARLINK-3849,1 52343U 22045N   22275.73768542  .00000918  00000-0  75806-4 0  9998,2 52343  53.2191  78.3258 0002066  46.9313 313.1852 15.08831339 26342,6917.906999999997,95.438,541.201,538.3430000000002,0.0
52343.0,STARLINK-3849,PAYLOAD,2022-10-03 09:36:06,15.08846497,0.0001975,53.2183,75.3503,41.1872,318.9269,7.8354e-05,9.59e-06,0.0,0 STARLINK-3849,1 52343U 22045N   22276.40007647  .00000959  00000-0  78354-4 0  9991,2 52343  53.2183  75.3503 0001975  41.1872 318.9269 15.08846497 26445,6917.861,95.437,541.092,538.359,0.0
